{
  "norad_id": 68110,
  "name": "STARLINK-36830",
  "history": [
    {
      "epoch": "2026-03-28T19:54:00.333792Z",
      "apogee_km": 345.00157557587863,
      "perigee_km": 342.752389697288,
      "latitude_deg": 9.197066015454824e-05,
      "longitude_deg": -75.82340615677295,
      "height_km": 347.598257000916,
      "semi_major_axis_km": 6722.013982636583,
      "eccentricity": 0.0001673,
      "inclination_deg": 97.2846,
      "raan_deg": 48.922,
      "arg_perigee_deg": 119.5751,
      "mean_anomaly_deg": 240.5682,
      "mean_motion_rev_day": 15.75265076
    },
    {
      "epoch": "2026-03-29T05:02:55.514400Z",
      "apogee_km": 345.7946055410548,
      "perigee_km": 343.60161672780396,
      "latitude_deg": 1.5627089314842714e-05,
      "longitude_deg": 146.97106221967692,
      "height_km": 348.6489646995427,
      "semi_major_axis_km": 6722.835111134429,
      "eccentricity": 0.0001631,
      "inclination_deg": 97.2843,
      "raan_deg": 49.3221,
      "arg_perigee_deg": 135.6758,
      "mean_anomaly_deg": 224.4638,
      "mean_motion_rev_day": 15.7497648
    },
    {
      "epoch": "2026-03-29T23:22:09.433056Z",
      "apogee_km": 357.6850145779372,
      "perigee_km": 349.8638798585589,
      "latitude_deg": 3.4563240011488317e-06,
      "longitude_deg": -127.79112779884917,
      "height_km": 359.77113716062655,
      "semi_major_axis_km": 6731.911447218247,
      "eccentricity": 0.0005809,
      "inclination_deg": 97.2841,
      "raan_deg": 50.1203,
      "arg_perigee_deg": 136.5566,
      "mean_anomaly_deg": 223.6156,
      "mean_motion_rev_day": 15.71792348
    },
    {
      "epoch": "2026-03-30T14:00:03.000384Z",
      "apogee_km": 363.3961098840664,
      "perigee_km": 360.82996189040387,
      "latitude_deg": -23.817914238912927,
      "longitude_deg": -170.44742405611967,
      "height_km": 371.40485911512377,
      "semi_major_axis_km": 6740.250035887235,
      "eccentricity": 0.00019036,
      "inclination_deg": 97.285,
      "raan_deg": 50.7549,
      "arg_perigee_deg": 105.3234,
      "mean_anomaly_deg": 98.4234,
      "mean_motion_rev_day": 15.68876475
    },
    {
      "epoch": "2026-03-30T22:00:00.999936Z",
      "apogee_km": 367.2147629868232,
      "perigee_km": 365.0497176752924,
      "latitude_deg": -74.26183579491388,
      "longitude_deg": -80.39226310827678,
      "height_km": 394.3508942811243,
      "semi_major_axis_km": 6744.2692403310575,
      "eccentricity": 0.00016051,
      "inclination_deg": 97.2845,
      "raan_deg": 51.1011,
      "arg_perigee_deg": 110.0507,
      "mean_anomaly_deg": 174.0747,
      "mean_motion_rev_day": 15.67474241
    },
    {
      "epoch": "2026-03-31T20:00:01.999008Z",
      "apogee_km": 378.4733812869872,
      "perigee_km": 376.18057681249775,
      "latitude_deg": 46.55334635248781,
      "longitude_deg": -84.87695220615039,
      "height_km": 383.8065919667605,
      "semi_major_axis_km": 6755.463979049742,
      "eccentricity": 0.0001697,
      "inclination_deg": 97.2853,
      "raan_deg": 52.0496,
      "arg_perigee_deg": 93.9721,
      "mean_anomaly_deg": 312.9856,
      "mean_motion_rev_day": 15.63579573
    },
    {
      "epoch": "2026-04-01T20:00:01.999008Z",
      "apogee_km": 390.6762511019451,
      "perigee_km": 388.30081453992443,
      "latitude_deg": -80.97373485886185,
      "longitude_deg": 49.72456141530325,
      "height_km": 418.86881125409116,
      "semi_major_axis_km": 6767.6255328209345,
      "eccentricity": 0.0001755,
      "inclination_deg": 97.2849,
      "raan_deg": 53.0778,
      "arg_perigee_deg": 98.0284,
      "mean_anomaly_deg": 166.522,
      "mean_motion_rev_day": 15.59366793
    },
    {
      "epoch": "2026-04-02T20:00:01.999008Z",
      "apogee_km": 402.98581205313076,
      "perigee_km": 400.4786164177067,
      "latitude_deg": 71.60903907928143,
      "longitude_deg": 125.39619429589419,
      "height_km": 412.9189745929327,
      "semi_major_axis_km": 6779.869214235418,
      "eccentricity": 0.0001849,
      "inclination_deg": 97.2856,
      "raan_deg": 54.0995,
      "arg_perigee_deg": 87.7211,
      "mean_anomaly_deg": 19.2875,
      "mean_motion_rev_day": 15.55144639
    },
    {
      "epoch": "2026-04-02T22:00:01.999584Z",
      "apogee_km": 403.9872461756959,
      "perigee_km": 401.3259203101452,
      "latitude_deg": -33.176377532704386,
      "longitude_deg": 68.14947874808347,
      "height_km": 415.72553601210734,
      "semi_major_axis_km": 6780.79358324292,
      "eccentricity": 0.00019624,
      "inclination_deg": 97.2854,
      "raan_deg": 54.1841,
      "arg_perigee_deg": 103.6466,
      "mean_anomaly_deg": 109.5362,
      "mean_motion_rev_day": 15.5482665
    },
    {
      "epoch": "2026-04-03T20:00:01.999008Z",
      "apogee_km": 415.104978641406,
      "perigee_km": 412.858145821021,
      "latitude_deg": -64.87774015582399,
      "longitude_deg": -61.32433123479633,
      "height_km": 439.8199669024454,
      "semi_major_axis_km": 6792.118562231213,
      "eccentricity": 0.0001654,
      "inclination_deg": 97.2853,
      "raan_deg": 55.1148,
      "arg_perigee_deg": 97.5456,
      "mean_anomaly_deg": 196.7688,
      "mean_motion_rev_day": 15.50939563
    },
    {
      "epoch": "2026-04-04T20:00:01.999008Z",
      "apogee_km": 427.6553335100534,
      "perigee_km": 425.07098434969157,
      "latitude_deg": 72.08167343606173,
      "longitude_deg": 126.12472709861784,
      "height_km": 437.589553589797,
      "semi_major_axis_km": 6804.500158929872,
      "eccentricity": 0.0001899,
      "inclination_deg": 97.2856,
      "raan_deg": 56.1273,
      "arg_perigee_deg": 86.2719,
      "mean_anomaly_deg": 20.2173,
      "mean_motion_rev_day": 15.46708311
    },
    {
      "epoch": "2026-04-05T14:00:03.000384Z",
      "apogee_km": 436.92924662003225,
      "perigee_km": 434.11656781033344,
      "latitude_deg": -44.08897380613374,
      "longitude_deg": 20.056949304744055,
      "height_km": 453.7160432622229,
      "semi_major_axis_km": 6813.659907215183,
      "eccentricity": 0.0002064,
      "inclination_deg": 97.2854,
      "raan_deg": 56.8821,
      "arg_perigee_deg": 98.4339,
      "mean_anomaly_deg": 217.3157,
      "mean_motion_rev_day": 15.4359045
    },
    {
      "epoch": "2026-04-05T20:00:03.000384Z",
      "apogee_km": 440.16496439045477,
      "perigee_km": 437.2868848636772,
      "latitude_deg": -80.37913881334079,
      "longitude_deg": 54.396105953829235,
      "height_km": 468.3156995577223,
      "semi_major_axis_km": 6816.862924627066,
      "eccentricity": 0.0002111,
      "inclination_deg": 97.2852,
      "raan_deg": 57.132,
      "arg_perigee_deg": 85.9939,
      "mean_anomaly_deg": 177.6041,
      "mean_motion_rev_day": 15.42502655
    },
    {
      "epoch": "2026-04-06T06:00:02.000160Z",
      "apogee_km": 445.2100025190284,
      "perigee_km": 442.8031502652775,
      "latitude_deg": 53.95894539978587,
      "longitude_deg": 122.92998679633001,
      "height_km": 452.0194034949736,
      "semi_major_axis_km": 6822.143576392153,
      "eccentricity": 0.0001764,
      "inclination_deg": 97.2856,
      "raan_deg": 57.5451,
      "arg_perigee_deg": 94.7975,
      "mean_anomaly_deg": 319.7123,
      "mean_motion_rev_day": 15.4071205
    },
    {
      "epoch": "2026-04-07T20:00:00.999360Z",
      "apogee_km": 466.9768888119861,
      "perigee_km": 464.5486731696892,
      "latitude_deg": 7.475569079375759,
      "longitude_deg": 103.96174962323089,
      "height_km": 468.11947496093705,
      "semi_major_axis_km": 6843.899780990837,
      "eccentricity": 0.0001774,
      "inclination_deg": 97.2846,
      "raan_deg": 59.1147,
      "arg_perigee_deg": 86.7823,
      "mean_anomaly_deg": 85.5856,
      "mean_motion_rev_day": 15.33371193
    },
    {
      "epoch": "2026-04-08T14:00:04.999680Z",
      "apogee_km": 466.8699947790683,
      "perigee_km": 464.22162640502575,
      "latitude_deg": -9.97441075923719,
      "longitude_deg": 14.26671401004227,
      "height_km": 470.92659003033503,
      "semi_major_axis_km": 6843.682810592047,
      "eccentricity": 0.00019349,
      "inclination_deg": 97.2849,
      "raan_deg": 59.8503,
      "arg_perigee_deg": 99.5039,
      "mean_anomaly_deg": 250.6466,
      "mean_motion_rev_day": 15.33444114
    },
    {
      "epoch": "2026-04-09T20:00:01.999008Z",
      "apogee_km": 467.09174635761883,
      "perigee_km": 464.20640614787044,
      "latitude_deg": 45.56770486697965,
      "longitude_deg": -84.44985458236208,
      "height_km": 471.7336582656546,
      "semi_major_axis_km": 6843.786076252744,
      "eccentricity": 0.0002108,
      "inclination_deg": 97.2846,
      "raan_deg": 61.0847,
      "arg_perigee_deg": 95.5457,
      "mean_anomaly_deg": 310.4164,
      "mean_motion_rev_day": 15.33409407
    },
    {
      "epoch": "2026-04-10T12:00:02.000160Z",
      "apogee_km": 466.79381793297125,
      "perigee_km": 464.2301870166448,
      "latitude_deg": 55.60104075413638,
      "longitude_deg": -126.30063755097999,
      "height_km": 473.66149795689233,
      "semi_major_axis_km": 6843.649002474808,
      "eccentricity": 0.0001873,
      "inclination_deg": 97.2847,
      "raan_deg": 61.7406,
      "arg_perigee_deg": 97.1416,
      "mean_anomaly_deg": 26.6682,
      "mean_motion_rev_day": 15.33455477
    },
    {
      "epoch": "2026-04-11T20:21:04.387680Z",
      "apogee_km": 466.8799539208421,
      "perigee_km": 464.1643899614155,
      "latitude_deg": 3.501629828144194e-05,
      "longitude_deg": -82.25905987957522,
      "height_km": 468.7116992299701,
      "semi_major_axis_km": 6843.659171941129,
      "eccentricity": 0.0001984,
      "inclination_deg": 97.284,
      "raan_deg": 63.0708,
      "arg_perigee_deg": 93.4068,
      "mean_anomaly_deg": 266.7402,
      "mean_motion_rev_day": 15.33452059
    },
    {
      "epoch": "2026-04-13T03:40:25.683456Z",
      "apogee_km": 466.6362162296382,
      "perigee_km": 464.42489036981624,
      "latitude_deg": 9.720637770197705e-06,
      "longitude_deg": 167.9006375392192,
      "height_km": 468.75119804918626,
      "semi_major_axis_km": 6843.667553299727,
      "eccentricity": 0.00016156,
      "inclination_deg": 97.2845,
      "raan_deg": 64.3556,
      "arg_perigee_deg": 95.7704,
      "mean_anomaly_deg": 264.3723,
      "mean_motion_rev_day": 15.33449242
    },
    {
      "epoch": "2026-04-14T20:23:36.918240Z",
      "apogee_km": 466.5318285850399,
      "perigee_km": 464.667594704787,
      "latitude_deg": 2.3325161234569158e-05,
      "longitude_deg": -82.89637625687595,
      "height_km": 468.8148137060926,
      "semi_major_axis_km": 6843.736711644913,
      "eccentricity": 0.0001362,
      "inclination_deg": 97.285,
      "raan_deg": 66.0277,
      "arg_perigee_deg": 96.483,
      "mean_anomaly_deg": 263.6568,
      "mean_motion_rev_day": 15.33425998
    },
    {
      "epoch": "2026-04-15T19:53:07.424160Z",
      "apogee_km": 466.5174976724056,
      "perigee_km": 464.4917797473472,
      "latitude_deg": 1.771531780933724e-05,
      "longitude_deg": -75.2731558979725,
      "height_km": 468.6899859009657,
      "semi_major_axis_km": 6843.641638709876,
      "eccentricity": 0.000148,
      "inclination_deg": 97.2847,
      "raan_deg": 66.9928,
      "arg_perigee_deg": 94.2833,
      "mean_anomaly_deg": 265.8579,
      "mean_motion_rev_day": 15.33457952
    },
    {
      "epoch": "2026-04-16T14:40:42.303072Z",
      "apogee_km": 466.44341334362434,
      "perigee_km": 464.3178167723863,
      "latitude_deg": -5.0470885581868094e-06,
      "longitude_deg": 2.8333177099061544,
      "height_km": 468.5798104575122,
      "semi_major_axis_km": 6843.517615058005,
      "eccentricity": 0.0001553,
      "inclination_deg": 97.2861,
      "raan_deg": 67.7664,
      "arg_perigee_deg": 94.8358,
      "mean_anomaly_deg": 265.3062,
      "mean_motion_rev_day": 15.33499638
    }
  ]
}